#aV2023 10  9  0  0  0.00000000     288 DD+AD WGS84 FIT  NGA
## 2283  86400.00000000   300.00000000 60226 0.0000000000000
+   32     1  2  3  4  5  6  7  8  9 10 11 12 13 14 15 16 17
+         18 19 20 21 22 23 24 25 26 27 28 29 30 31 32  0  0
+          0  0  0  0  0  0  0  0  0  0  0  0  0  0  0  0  0
+          0  0  0  0  0  0  0  0  0  0  0  0  0  0  0  0  0
+          0  0  0  0  0  0  0  0  0  0  0  0  0  0  0  0  0
++         2  2  2  2  2  2  2  2  2  2  2  2  2  2  2  2  2
++         2  2  2  2  2  2  2  2  2  2  2  2  2  2  2  0  0
++         0  0  0  0  0  0  0  0  0  0  0  0  0  0  0  0  0
++         0  0  0  0  0  0  0  0  0  0  0  0  0  0  0  0  0
++         0  0  0  0  0  0  0  0  0  0  0  0  0  0  0  0  0
%c cc cc ccc ccc cccc cccc cccc cccc ccccc ccccc ccccc ccccc
%c cc cc ccc ccc cccc cccc cccc cccc ccccc ccccc ccccc ccccc
%f  0.0000000  0.000000000  0.00000000000  0.000000000000000
%f  0.0000000  0.000000000  0.00000000000  0.000000000000000
%i    0    0    0    0      0      0      0      0         0
%i    0    0    0    0      0      0      0      0         0
/*      NGA, ST. LOUIS,MO.                                  
/*   EPHEMERIS COMPUTED FROM 2 DAYS OF DATA                 
/*   EPOCHA v8 SMOOTHER                                     
/*   G2139 IERS2010 SATIGS SATAPC                           
*  2023 10  9  9 55  0.00000000
P  1  20685.654924  14973.553232  -8256.190554    163.966630                    
V  1  -9617.114940  -2688.960133 -29906.059279     -0.005293                    
P  2  16940.333427  15144.790292 -13396.977776   -544.233026                    
V  2 -17547.745995  -3478.306191 -25005.227519      0.046855                    
P  3  12085.903939  18789.297669  14299.518316    -89.451775                    
V  3    731.959860  18389.027259 -24423.582924      0.224679                    
P  4  14487.569075   7573.222398  20963.863361    179.368951                    
V  4 -21235.739525  15983.199395   8782.305343      0.108607                    
P  5  -5617.627674 -25877.265366  -1413.779387   -145.819125                    
V  5   2349.818581  -2024.137992  31905.275430     -0.014588                    
P  6  13419.383547  -9282.660134  21045.369195    534.397555                    
V  6  24108.260253  10935.243674 -10492.666467     -0.080980                    
P  7  25207.548422   4969.911556  -7170.514745     45.215887                    
V  7   7858.378771   6167.027329  29451.842688     -0.102817                    
P  8   5722.758032  14758.934448 -21351.552997   -146.227133                    
V  8 -21413.578811  16476.874505   6068.469086     -0.019528                    
P  9  20785.471946  -1886.562307  16372.356839    -37.438849                    
V  9 -15123.447504  14614.472591  20719.606424      0.106843                    
P 10 -11543.818033  13199.976028 -19659.356124    -56.611861                    
V 10  -4496.713450 -25044.317036 -14360.067516     -0.015731                    
P 11     86.314636 -16121.265404  21133.555529   -406.908088                    
V 11  24465.310216  10883.099807   8156.684960     -0.175445                    
P 12  -9650.065960 -21528.760901  12000.424375   -433.878519                    
V 12   1336.723111 -15744.765570 -26494.105121     -0.042438                    
P 13   4861.409612 -17837.612938 -19186.019519    581.960614                    
V 13  21527.333222 -10667.882747  15742.700232      0.043553                    
P 14  13851.179227  -9514.046760 -20507.886448    208.805588                    
V 14   3722.038246  25937.623862  -9676.487096      0.111175                    
P 15  -8584.058663 -13909.087699 -21399.806139     85.363671                    
V 15  18715.123394 -18327.006894   4743.239923      0.037148                    
P 16   -988.932160  26082.819655   3017.492408   -441.926239                    
V 16  -3297.511435  -4125.580516  31809.048264      0.059761                    
P 17  22845.403765 -13370.212534  -2408.816454    723.851844                    
V 17  -1641.826039   3971.835795 -31736.923369     -0.000370                    
P 18 -24510.265370  -3389.178312  -9890.551453   -443.239898                    
V 18 -10649.278251  -6828.920590  28529.910019     -0.118953                    
P 19  19925.914650 -16384.580602   5305.759805    382.527315                    
V 19   7437.288032  -1337.539925 -31247.659913      0.051959                    
P 20    451.656127 -24398.015697  10753.406379    407.737311                    
V 20   6493.643641  12168.427264  27255.354391     -0.019471                    
P 21  14470.891780  15961.300203 -15591.394063    147.177303                    
V 21 -19895.178971  -4696.808347 -21636.047740     -0.009190                    
P 22  11066.675847 -16981.102076 -16852.332948    106.303487                    
V 22   2558.770909  22089.417530 -19765.875367     -0.072306                    
P 23 -15094.817354   -701.662750 -21848.456743     80.011770                    
V 23  -4200.389045 -27379.042912   3605.729379      0.056779                    
P 24 -18139.563742 -15409.209418 -12598.059726   -341.399353                    
V 24  15362.187568   2115.734241 -25072.522424     -0.100116                    
P 25 -15312.378001  -9213.048594  19414.247263    471.848448                    
V 25  -2395.046383 -25208.321078 -13365.577783      0.018456                    
P 26  -5492.898291  22094.285149  13256.769068    224.222957                    
V 26  -6587.345159 -16254.566370  24487.014991     -0.021785                    
P 27  -7254.471540  19768.834838 -16183.761553    -52.373645                    
V 27 -17225.327498  10807.416947  21664.421652     -0.058793                    
P 28 -15177.570495   9049.679536  19806.951113    -22.411112                    
V 28 -23176.854166  -9952.595700 -13195.998332     -0.066141                    
P 29 -20871.390882    273.886130  16441.981422   -609.952759                    
V 29  16668.219877 -12680.875175  21209.884767     -0.002598                    
P 30  21126.653827  -3654.561831 -15721.479302   -480.304477                    
V 30  17666.438976   9961.966274  20997.794075      0.036365                    
P 31  -6173.855856  13947.662216  21548.128750   -224.432144                    
V 31 -25552.949050 -11072.057950    258.073239     -0.004772                    
P 32 -20538.216344  16652.935544    698.584560   -570.112253                    
V 32  -2388.190373  -1959.977695 -31862.689130     -0.054387                    
EOF
